{"type": "FeatureCollection", "features": [ {"type": "Feature", "properties": {"norad_id": 67110, "name": "STARLINK-35781", "group": "last-30-days", "lat": -34.97681050187897, "lon": 114.8308053353491, "alt_km": 310.38955264578, "timestamp": "2025-12-24T05:51:18.329394+00:00", "meta": {"OBJECT_NAME": "STARLINK-35781", "OBJECT_ID": "2025-299J", "EPOCH": "2025-12-23T22:00:01.999584", "MEAN_MOTION": 15.89082767, "ECCENTRICITY": 0.00014672, "INCLINATION": 42.9976, "RA_OF_ASC_NODE": 248.1923, "ARG_OF_PERICENTER": 267.3306, "MEAN_ANOMALY": 256.1046, "EPHEMERIS_TYPE": 0, "CLASSIFICATION_TYPE": "U", "NORAD_CAT_ID": 67110, "ELEMENT_SET_NO": 999, "REV_AT_EPOCH": 255, "BSTAR": -0.0069974569, "MEAN_MOTION_DOT": -0.01792387, "MEAN_MOTION_DDOT": 0}, "tle": {"line1": "1 67110U 25299J   25357.91668981 -.01792387  00000+0 -69975-2 0  9998", "line2": "2 67110  42.9976 248.1923 0001467 267.3306 256.1046 15.89082767  2557"}}, "geometry": {"type": "Point", "coordinates": [114.8308053353491, -34.97681050187897]}}, {"type": "Feature", "properties": {"norad_id": 67111, "name": "STARLINK-35875", "group": "last-30-days", "lat": -34.19253997721762, "lon": 112.98833186328353, "alt_km": 310.39418704779655, "timestamp": "2025-12-24T05:51:18.329404+00:00", "meta": {"OBJECT_NAME": "STARLINK-35875", "OBJECT_ID": "2025-299K", "EPOCH": "2025-12-23T22:00:01.999584", "MEAN_MOTION": 15.8906978, "ECCENTRICITY": 0.00014989, "INCLINATION": 42.9978, "RA_OF_ASC_NODE": 248.197, "ARG_OF_PERICENTER": 269.1868, "MEAN_ANOMALY": 252.5478, "EPHEMERIS_TYPE": 0, "CLASSIFICATION_TYPE": "U", "NORAD_CAT_ID": 67111, "ELEMENT_SET_NO": 999, "REV_AT_EPOCH": 249, "BSTAR": -0.0069650338, "MEAN_MOTION_DOT": -0.0178429, "MEAN_MOTION_DDOT": 0}, "tle": {"line1": "1 67111U 25299K   25357.91668981 -.01784290  00000+0 -69650-2 0  9993", "line2": "2 67111  42.9978 248.1970 0001498 269.1868 252.5478 15.89069780  2491"}}, "geometry": {"type": "Point", "coordinates": [112.98833186328353, -34.19253997721762]}}, {"type": "Feature", "properties": {"norad_id": 67112, "name": "STARLINK-35906", "group": "last-30-days", "lat": -35.609678061233645, "lon": 116.39545359798423, "alt_km": 310.3964675043935, "timestamp": "2025-12-24T05:51:18.329416+00:00", "meta": {"OBJECT_NAME": "STARLINK-35906", "OBJECT_ID": "2025-299L", "EPOCH": "2025-12-23T22:00:01.999584", "MEAN_MOTION": 15.89096772, "ECCENTRICITY": 0.00014501, "INCLINATION": 42.9977, "RA_OF_ASC_NODE": 248.1889, "ARG_OF_PERICENTER": 268.9237, "MEAN_ANOMALY": 255.9244, "EPHEMERIS_TYPE": 0, "CLASSIFICATION_TYPE": "U", "NORAD_CAT_ID": 67112, "ELEMENT_SET_NO": 999, "REV_AT_EPOCH": 249, "BSTAR": -0.0069900801, "MEAN_MOTION_DOT": -0.0179185, "MEAN_MOTION_DDOT": 0}, "tle": {"line1": "1 67112U 25299L   25357.91668981 -.01791850  00000+0 -69901-2 0  9993", "line2": "2 67112  42.9977 248.1889 0001450 268.9237 255.9244 15.89096772  2494"}}, "geometry": {"type": "Point", "coordinates": [116.39545359798423, -35.609678061233645]}}, {"type": "Feature", "properties": {"norad_id": 67113, "name": "STARLINK-35789", "group": "last-30-days", "lat": -36.266792072310366, "lon": 118.10494060971266, "alt_km": 310.3612621658476, "timestamp": "2025-12-24T05:51:18.329426+00:00", "meta": {"OBJECT_NAME": "STARLINK-35789", "OBJECT_ID": "2025-299M", "EPOCH": "2025-12-23T22:00:01.999584", "MEAN_MOTION": 15.8910278, "ECCENTRICITY": 0.00013962, "INCLINATION": 42.9975, "RA_OF_ASC_NODE": 248.185, "ARG_OF_PERICENTER": 263.9687, "MEAN_ANOMALY": 262.4035, "EPHEMERIS_TYPE": 0, "CLASSIFICATION_TYPE": "U", "NORAD_CAT_ID": 67113, "ELEMENT_SET_NO": 999, "REV_AT_EPOCH": 249, "BSTAR": -0.0069584102, "MEAN_MOTION_DOT": -0.01785306, "MEAN_MOTION_DDOT": 0}, "tle": {"line1": "1 67113U 25299M   25357.91668981 -.01785306  00000+0 -69584-2 0  9990", "line2": "2 67113  42.9975 248.1850 0001396 263.9687 262.4035 15.89102780  2492"}}, "geometry": {"type": "Point", "coordinates": [118.10494060971266, -36.266792072310366]}}, {"type": "Feature", "properties": {"norad_id": 67114, "name": "STARLINK-36180", "group": "last-30-days", "lat": -37.010113267586, "lon": 120.15749055770526, "alt_km": 310.39998867015674, "timestamp": "2025-12-24T05:51:18.329436+00:00", "meta": {"OBJECT_NAME": "STARLINK-36180", "OBJECT_ID": "2025-299N", "EPOCH": "2025-12-23T22:00:01.999584", "MEAN_MOTION": 15.89109095, "ECCENTRICITY": 0.00013716, "INCLINATION": 42.9978, "RA_OF_ASC_NODE": 248.1806, "ARG_OF_PERICENTER": 265.4075, "MEAN_ANOMALY": 262.771, "EPHEMERIS_TYPE": 0, "CLASSIFICATION_TYPE": "U", "NORAD_CAT_ID": 67114, "ELEMENT_SET_NO": 999, "REV_AT_EPOCH": 260, "BSTAR": -0.0069675264, "MEAN_MOTION_DOT": -0.01787777, "MEAN_MOTION_DDOT": 0}, "tle": {"line1": "1 67114U 25299N   25357.91668981 -.01787777  00000+0 -69675-2 0  9996", "line2": "2 67114  42.9978 248.1806 0001371 265.4075 262.7710 15.89109095  2600"}}, "geometry": {"type": "Point", "coordinates": [120.15749055770526, -37.010113267586]}}, {"type": "Feature", "properties": {"norad_id": 67115, "name": "STARLINK-35892", "group": "last-30-days", "lat": -37.61983318682911, "lon": 121.95288115215567, "alt_km": 310.3750110365054, "timestamp": "2025-12-24T05:51:18.329446+00:00", "meta": {"OBJECT_NAME": "STARLINK-35892", "OBJECT_ID": "2025-299P", "EPOCH": "2025-12-23T22:00:01.999584", "MEAN_MOTION": 15.89120037, "ECCENTRICITY": 0.00014697, "INCLINATION": 42.9978, "RA_OF_ASC_NODE": 248.1766, "ARG_OF_PERICENTER": 269.7825, "MEAN_ANOMALY": 259.9434, "EPHEMERIS_TYPE": 0, "CLASSIFICATION_TYPE": "U", "NORAD_CAT_ID": 67115, "ELEMENT_SET_NO": 999, "REV_AT_EPOCH": 249, "BSTAR": -0.0069715726, "MEAN_MOTION_DOT": -0.01789635, "MEAN_MOTION_DDOT": 0}, "tle": {"line1": "1 67115U 25299P   25357.91668981 -.01789635  00000+0 -69716-2 0  9998", "line2": "2 67115  42.9978 248.1766 0001469 269.7825 259.9434 15.89120037  2491"}}, "geometry": {"type": "Point", "coordinates": [121.95288115215567, -37.61983318682911]}}, {"type": "Feature", "properties": {"norad_id": 67116, "name": "STARLINK-35738", "group": "last-30-days", "lat": -38.31558654187126, "lon": 124.14867802623769, "alt_km": 310.38147776906135, "timestamp": "2025-12-24T05:51:18.329455+00:00", "meta": {"OBJECT_NAME": "STARLINK-35738", "OBJECT_ID": "2025-299Q", "EPOCH": "2025-12-23T22:00:01.999584", "MEAN_MOTION": 15.89117346, "ECCENTRICITY": 0.00014395, "INCLINATION": 42.9978, "RA_OF_ASC_NODE": 248.172, "ARG_OF_PERICENTER": 267.7693, "MEAN_ANOMALY": 263.8265, "EPHEMERIS_TYPE": 0, "CLASSIFICATION_TYPE": "U", "NORAD_CAT_ID": 67116, "ELEMENT_SET_NO": 999, "REV_AT_EPOCH": 249, "BSTAR": -0.0069415498, "MEAN_MOTION_DOT": -0.01782785, "MEAN_MOTION_DDOT": 0}, "tle": {"line1": "1 67116U 25299Q   25357.91668981 -.01782785  00000+0 -69415-2 0  9994", "line2": "2 67116  42.9978 248.1720 0001439 267.7693 263.8265 15.89117346  2495"}}, "geometry": {"type": "Point", "coordinates": [124.14867802623769, -38.31558654187126]}}, {"type": "Feature", "properties": {"norad_id": 67117, "name": "STARLINK-35674", "group": "last-30-days", "lat": -38.9048727112118, "lon": 126.15582539281831, "alt_km": 310.3683755715074, "timestamp": "2025-12-24T05:51:18.329467+00:00", "meta": {"OBJECT_NAME": "STARLINK-35674", "OBJECT_ID": "2025-299R", "EPOCH": "2025-12-23T22:00:01.999584", "MEAN_MOTION": 15.89127335, "ECCENTRICITY": 0.0001418, "INCLINATION": 42.9979, "RA_OF_ASC_NODE": 248.1678, "ARG_OF_PERICENTER": 265.1589, "MEAN_ANOMALY": 268.1066, "EPHEMERIS_TYPE": 0, "CLASSIFICATION_TYPE": "U", "NORAD_CAT_ID": 67117, "ELEMENT_SET_NO": 999, "REV_AT_EPOCH": 239, "BSTAR": -0.0069578717, "MEAN_MOTION_DOT": -0.01787136, "MEAN_MOTION_DDOT": 0}, "tle": {"line1": "1 67117U 25299R   25357.91668981 -.01787136  00000+0 -69579-2 0  9991", "line2": "2 67117  42.9979 248.1678 0001418 265.1589 268.1066 15.89127335  2397"}}, "geometry": {"type": "Point", "coordinates": [126.15582539281831, -38.9048727112118]}}, {"type": "Feature", "properties": {"norad_id": 67118, "name": "STARLINK-35701", "group": "last-30-days", "lat": -39.472794897470635, "lon": 128.24901924046497, "alt_km": 310.33870501332785, "timestamp": "2025-12-24T05:51:18.329477+00:00", "meta": {"OBJECT_NAME": "STARLINK-35701", "OBJECT_ID": "2025-299S", "EPOCH": "2025-12-23T22:00:01.999584", "MEAN_MOTION": 15.89126561, "ECCENTRICITY": 0.00015271, "INCLINATION": 42.9978, "RA_OF_ASC_NODE": 248.1635, "ARG_OF_PERICENTER": 269.5013, "MEAN_ANOMALY": 265.4883, "EPHEMERIS_TYPE": 0, "CLASSIFICATION_TYPE": "U", "NORAD_CAT_ID": 67118, "ELEMENT_SET_NO": 999, "REV_AT_EPOCH": 255, "BSTAR": -0.0069305934, "MEAN_MOTION_DOT": -0.01781192, "MEAN_MOTION_DDOT": 0}, "tle": {"line1": "1 67118U 25299S   25357.91668981 -.01781192  00000+0 -69306-2 0  9996", "line2": "2 67118  42.9978 248.1635 0001527 269.5013 265.4883 15.89126561  2556"}}, "geometry": {"type": "Point", "coordinates": [128.24901924046497, -39.472794897470635]}}, {"type": "Feature", "properties": {"norad_id": 67119, "name": "STARLINK-36179", "group": "last-30-days", "lat": -40.282221050346685, "lon": 131.58218286298867, "alt_km": 310.2856428709247, "timestamp": "2025-12-24T05:51:18.329487+00:00", "meta": {"OBJECT_NAME": "STARLINK-36179", "OBJECT_ID": "2025-299T", "EPOCH": "2025-12-23T22:00:01.999584", "MEAN_MOTION": 15.89165149, "ECCENTRICITY": 0.00014556, "INCLINATION": 42.9976, "RA_OF_ASC_NODE": 248.1565, "ARG_OF_PERICENTER": 266.6242, "MEAN_ANOMALY": 271.0131, "EPHEMERIS_TYPE": 0, "CLASSIFICATION_TYPE": "U", "NORAD_CAT_ID": 67119, "ELEMENT_SET_NO": 999, "REV_AT_EPOCH": 260, "BSTAR": -0.006950741, "MEAN_MOTION_DOT": -0.01788577, "MEAN_MOTION_DDOT": 0}, "tle": {"line1": "1 67119U 25299T   25357.91668981 -.01788577  00000+0 -69507-2 0  9994", "line2": "2 67119  42.9976 248.1565 0001455 266.6242 271.0131 15.89165149  2609"}}, "geometry": {"type": "Point", "coordinates": [131.58218286298867, -40.282221050346685]}}]}